GLOBALSTAR M075         
1 37192U 10054E   26024.26985133 -.00000097  00000+0  38989-4 0  9990
2 37192  51.9921 228.3901 0000953  82.4167  89.5261 12.62263914703761
GLOBALSTAR M073         
1 37193U 10054F   26023.79361621 -.00000084  00000+0  10849-3 0  9998
2 37193  52.0050 143.8281 0001099 101.6526  63.4253 12.62268976705693
GLOBALSTAR M083         
1 37739U 11033A   26023.64804769 -.00000079  00000+0  13681-3 0  9992
2 37739  51.9861  92.6983 0000749 104.8775  60.1987 12.62266773674695
GLOBALSTAR M088         
1 37740U 11033B   26024.22188692 -.00000085  00000+0  10490-3 0  9991
2 37740  52.0237 357.0281 0000265  71.1269 302.5193 12.62271842670312
GLOBALSTAR M091         
1 37741U 11033C   26023.84023398 -.00000073  00000+0  17160-3 0  9998
2 37741  52.0023 321.3718 0000588  44.2852 333.2174 12.62268959671059
GLOBALSTAR M085         
1 37742U 11033D   26023.98454734 -.00000072  00000+0  17458-3 0  9995
2 37742  52.0120 272.0992 0000933  54.1970 319.9292 12.62268652671589
GLOBALSTAR M081         
1 37743U 11033E   26024.12182656 -.00000059  00000+0  25135-3 0  9990
2 37743  51.9960 274.2797 0000967  68.6275  90.5355 12.62261815671746
GLOBALSTAR M089         
1 37744U 11033F   26024.32268034 -.00000094  00000+0  55439-4 0  9998
2 37744  51.9905 227.8544 0001107  97.7107  74.3295 12.62263873672610
